{
"type": "FeatureCollection",
"name": "lo",
"crs": { "type": "name", "properties": { "name": "urn:ogc:def:crs:OGC:1.3:CRS84" } },
"features": [
{ "type": "Feature", "properties": { "STT": 2, "ID_lo": "0", "Vung": "TN", "Khu_vuc": "Tay Nguyen", "Congty": "VNCCSVN", "NT_doi": "Tram TNCS TN", "Tenlo_cu": "", "Tenlo_moi": "", "o": "", "Nam_trong": "", "Hang_dat": "", "Caotrinh": 0, "PP_trong": "", "KC": "", "Mat_do": "", "Giong": "", "DT_bando": 0.67, "DT_2023": 0.0, "DT_2024": 0.0, "DT_thaydoi": 0.0, "Hien_trang": "", "Phanloai_VC": "", "Va_nam2": 0.0, "va_nam3": 0.0, "Va_nam4": 0.0, "Va_nam5": 0.0, "Va_nam6": 0.0, "Va_nam7": 0.0, "Va_nam8": 0.0, "Va_nam9": 0.0, "Va_nam10": 0.0, "Md_HH": 0.0, "Do_lechTC": 0.0, "Tyle_datTC": 0.0, "Nam_cao": "", "Nam_up": "", "Matdo_CC": 0, "NS_2017": 0.0, "NS_2018": 0.0, "NS_2022": 0.0, "NS_2019": 0.0, "NS_2020": 0.0, "NS_2021": 0.0, "NS_2023": 0.0, "HT_Loaivuon": "", "X": 824115.0, "Y": 1521359.0 }, "geometry": { "type": "Polygon", "coordinates": [ [ [ 107.997240229282312, 13.743602352945882 ], [ 107.996410493038752, 13.743738877449591 ], [ 107.996236527869158, 13.743135905396846 ], [ 107.997183002886075, 13.742989382813699 ], [ 107.997240229282312, 13.743602352945882 ] ] ] } },
{ "type": "Feature", "properties": { "STT": 3, "ID_lo": "0", "Vung": "TN", "Khu_vuc": "Tay Nguyen", "Congty": "VNCCSVN", "NT_doi": "Tram TNCS TN", "Tenlo_cu": "KC0609/03 BP", "Tenlo_moi": "KC0609/03 PB", "o": "", "Nam_trong": "2003", "Hang_dat": "TM-III", "Caotrinh": 620, "PP_trong": "B", "KC": "7x2,5", "Mat_do": "571", "Giong": "PB 260", "DT_bando": 5.4, "DT_2023": 5.14, "DT_2024": 5.14, "DT_thaydoi": 0.0, "Hien_trang": "CS.KD", "Phanloai_VC": "Q3", "Va_nam2": 0.0, "va_nam3": 0.0, "Va_nam4": 0.0, "Va_nam5": 0.0, "Va_nam6": 0.0, "Va_nam7": 0.0, "Va_nam8": 0.0, "Va_nam9": 0.0, "Va_nam10": 0.0, "Md_HH": 0.0, "Do_lechTC": 0.0, "Tyle_datTC": 0.0, "Nam_cao": "4/2012", "Nam_up": "04/2020", "Matdo_CC": 335, "NS_2017": 656.56, "NS_2018": 904.61, "NS_2022": 884.01, "NS_2019": 289.61, "NS_2020": 752.51, "NS_2021": 730.11, "NS_2023": 697.12, "HT_Loaivuon": "KDII", "X": 824012.0, "Y": 1521089.0 }, "geometry": { "type": "Polygon", "coordinates": [ [ [ 107.994784409841444, 13.742431240779588 ], [ 107.996110192391455, 13.742282642827035 ], [ 107.995976411752906, 13.741570266096049 ], [ 107.99597629067182, 13.741568009779964 ], [ 107.995948365205962, 13.741493390619214 ], [ 107.996850774226118, 13.741405566645293 ], [ 107.99649689466122, 13.73967335948049 ], [ 107.996461522773899, 13.739470859493748 ], [ 107.995197069464524, 13.739617085610726 ], [ 107.995194762505733, 13.739617294260551 ], [ 107.99519245210314, 13.739617232017471 ], [ 107.995190232922766, 13.739617078354563 ], [ 107.995169782989649, 13.739621752061696 ], [ 107.995112837310515, 13.739785998138723 ], [ 107.994900434776611, 13.740366572626863 ], [ 107.994825729055833, 13.741016007718848 ], [ 107.994772227234876, 13.741320375573817 ], [ 107.994692030502506, 13.741697768576641 ], [ 107.994784409841444, 13.742431240779588 ] ] ] } },
{ "type": "Feature", "properties": { "STT": 5, "ID_lo": "0", "Vung": "TN", "Khu_vuc": "Tay Nguyen", "Congty": "VNCCSVN", "NT_doi": "Tram TNCS TN", "Tenlo_cu": "XTCP02", "Tenlo_moi": "XTCP02", "o": "", "Nam_trong": "2002", "Hang_dat": "TM-III", "Caotrinh": 650, "PP_trong": "B", "KC": "7x2,5 &16x4x2", "Mat_do": "", "Giong": "Gi?ng TN", "DT_bando": 8.17, "DT_2023": 8.17, "DT_2024": 8.17, "DT_thaydoi": 0.0, "Hien_trang": "CS.KD", "Phanloai_VC": "Q3", "Va_nam2": 0.0, "va_nam3": 0.0, "Va_nam4": 0.0, "Va_nam5": 0.0, "Va_nam6": 0.0, "Va_nam7": 0.0, "Va_nam8": 0.0, "Va_nam9": 0.0, "Va_nam10": 0.0, "Md_HH": 0.0, "Do_lechTC": 0.0, "Tyle_datTC": 0.0, "Nam_cao": "04/2011", "Nam_up": "04/2021", "Matdo_CC": 264, "NS_2017": 910.02, "NS_2018": 513.83, "NS_2022": 1078.13, "NS_2019": 762.33, "NS_2020": 942.35, "NS_2021": 1194.89, "NS_2023": 1156.85, "HT_Loaivuon": "KDII", "X": 824239.0, "Y": 1522120.0 }, "geometry": { "type": "Polygon", "coordinates": [ [ [ 107.996234377267385, 13.74973408688707 ], [ 107.995367961601545, 13.750518501325054 ], [ 107.997143976290317, 13.750832679223805 ], [ 107.999112028991448, 13.751194447644878 ], [ 107.999508046118919, 13.750653719532142 ], [ 108.000437130554374, 13.749343731831102 ], [ 107.999676532597789, 13.749244710093869 ], [ 107.999225744412485, 13.749162776679137 ], [ 107.9984416264939, 13.749146581719495 ], [ 107.997918366507434, 13.749090543965885 ], [ 107.997500722250408, 13.749028523980737 ], [ 107.997132168312177, 13.748976291909221 ], [ 107.996798873523474, 13.74927710924373 ], [ 107.996494906813354, 13.749515886889323 ], [ 107.996234377267385, 13.74973408688707 ] ] ] } },
{ "type": "Feature", "properties": { "STT": 6, "ID_lo": "0", "Vung": "TN", "Khu_vuc": "Tay Nguyen", "Congty": "VNCCSVN", "NT_doi": "Tram TNCS TN", "Tenlo_cu": "VU,VN 07", "Tenlo_moi": "", "o": "", "Nam_trong": "", "Hang_dat": "", "Caotrinh": 0, "PP_trong": "", "KC": "", "Mat_do": "", "Giong": "", "DT_bando": 5.01, "DT_2023": 5.14, "DT_2024": 5.14, "DT_thaydoi": 0.0, "Hien_trang": "", "Phanloai_VC": "", "Va_nam2": 0.0, "va_nam3": 0.0, "Va_nam4": 0.0, "Va_nam5": 0.0, "Va_nam6": 0.0, "Va_nam7": 0.0, "Va_nam8": 0.0, "Va_nam9": 0.0, "Va_nam10": 0.0, "Md_HH": 0.0, "Do_lechTC": 0.0, "Tyle_datTC": 0.0, "Nam_cao": "", "Nam_up": "", "Matdo_CC": 0, "NS_2017": 0.0, "NS_2018": 0.0, "NS_2022": 0.0, "NS_2019": 0.0, "NS_2020": 0.0, "NS_2021": 0.0, "NS_2023": 0.0, "HT_Loaivuon": "", "X": 824091.0, "Y": 1521727.0 }, "geometry": { "type": "Polygon", "coordinates": [ [ [ 107.995140515614722, 13.746009573383521 ], [ 107.995309357274891, 13.746994084409788 ], [ 107.995417559051603, 13.747314910351641 ], [ 107.995714915985118, 13.747406303215048 ], [ 107.997053728468771, 13.747720472747401 ], [ 107.997373327416838, 13.747809967243526 ], [ 107.997477122736001, 13.747421539811626 ], [ 107.997698188363344, 13.746026791408843 ], [ 107.997569343013382, 13.745506900840436 ], [ 107.996781276694946, 13.745607880153937 ], [ 107.996698939828235, 13.745787788307556 ], [ 107.995863871210346, 13.745890691140445 ], [ 107.995620791702365, 13.745926248491399 ], [ 107.995140515614722, 13.746009573383521 ] ] ] } },
{ "type": "Feature", "properties": { "STT": 7, "ID_lo": "0", "Vung": "TN", "Khu_vuc": "Tay Nguyen", "Congty": "VNCCSVN", "NT_doi": "Tram TNCS TN", "Tenlo_cu": "XTCP 99", "Tenlo_moi": "Lô 02'15", "o": "", "Nam_trong": "2015", "Hang_dat": "TM-III", "Caotrinh": 645, "PP_trong": "TB2", "KC": "7*2.5", "Mat_do": "571", "Giong": "PB312, RRIV107, R205", "DT_bando": 3.3, "DT_2023": 3.3, "DT_2024": 3.3, "DT_thaydoi": 0.0, "Hien_trang": "CS.KTCB", "Phanloai_VC": "K2", "Va_nam2": 9.2, "va_nam3": 16.7, "Va_nam4": 18.8, "Va_nam5": 27.0, "Va_nam6": 35.86, "Va_nam7": 40.9, "Va_nam8": 46.03, "Va_nam9": 47.86, "Va_nam10": 0.0, "Md_HH": 528.0, "Do_lechTC": 101.68, "Tyle_datTC": 60.98, "Nam_cao": "04/2024", "Nam_up": "", "Matdo_CC": 0, "NS_2017": 0.0, "NS_2018": 0.0, "NS_2022": 0.0, "NS_2019": 0.0, "NS_2020": 0.0, "NS_2021": 0.0, "NS_2023": 0.0, "HT_Loaivuon": "KTCB", "X": 824135.0, "Y": 1520741.0 }, "geometry": { "type": "Polygon", "coordinates": [ [ [ 107.995385526771742, 13.73673141860275 ], [ 107.995588512615939, 13.736987334186226 ], [ 107.995822028789974, 13.737312057230731 ], [ 107.996028472265067, 13.737556460682107 ], [ 107.996207411360743, 13.737875524463586 ], [ 107.996290261185422, 13.738099303032353 ], [ 107.996744994906493, 13.737977455533828 ], [ 107.997246879570667, 13.73791653622164 ], [ 107.997480064970063, 13.738810493901108 ], [ 107.997585537135052, 13.73879358774081 ], [ 107.99833670758369, 13.738655399105964 ], [ 107.998097533741998, 13.737581434768929 ], [ 107.997993707796638, 13.737233914608106 ], [ 107.996834549088959, 13.737326395499176 ], [ 107.996748030427696, 13.736879502087914 ], [ 107.996502337332785, 13.736861354943235 ], [ 107.996264421991285, 13.73674286726321 ], [ 107.995698196322664, 13.736691315108855 ], [ 107.99548391110072, 13.736687506119818 ], [ 107.995385526771742, 13.73673141860275 ] ] ] } },
{ "type": "Feature", "properties": { "STT": 8, "ID_lo": "0", "Vung": "TN", "Khu_vuc": "Tay Nguyen", "Congty": "VNCCSVN", "NT_doi": "Tram TNCS TN", "Tenlo_cu": "KYCP00", "Tenlo_moi": "KYCP00", "o": "", "Nam_trong": "2000", "Hang_dat": "TM-III", "Caotrinh": 622, "PP_trong": "B", "KC": "7x2,5", "Mat_do": "571", "Giong": "PB 255", "DT_bando": 9.12, "DT_2023": 9.12, "DT_2024": 9.12, "DT_thaydoi": 0.0, "Hien_trang": "CS.KD", "Phanloai_VC": "Q3", "Va_nam2": 0.0, "va_nam3": 0.0, "Va_nam4": 0.0, "Va_nam5": 0.0, "Va_nam6": 0.0, "Va_nam7": 0.0, "Va_nam8": 0.0, "Va_nam9": 0.0, "Va_nam10": 0.0, "Md_HH": 0.0, "Do_lechTC": 0.0, "Tyle_datTC": 0.0, "Nam_cao": "09/2008", "Nam_up": "06/2018", "Matdo_CC": 207, "NS_2017": 1001.28, "NS_2018": 867.68, "NS_2022": 1124.39, "NS_2019": 1032.61, "NS_2020": 810.11, "NS_2021": 1261.33, "NS_2023": 877.3, "HT_Loaivuon": "KDII", "X": 824261.0, "Y": 1521943.0 }, "geometry": { "type": "MultiPolygon", "coordinates": [ [ [ [ 107.997139856939953, 13.748941609123762 ], [ 107.99846519435647, 13.749103758290122 ], [ 107.999325192803667, 13.749086065902805 ], [ 107.999327504443002, 13.749086218385045 ], [ 107.999329726009492, 13.749086552586185 ], [ 107.999330281401114, 13.749086636136468 ], [ 107.999454910391066, 13.748027664973906 ], [ 107.997430805681333, 13.748028724672107 ], [ 107.997238050812896, 13.748584858766124 ], [ 107.997214569227012, 13.748750594846332 ], [ 107.997163574215747, 13.748794384004754 ], [ 107.997139856939953, 13.748941609123762 ] ] ], [ [ [ 107.997627498142819, 13.745212771858796 ], [ 107.997788628149067, 13.745881102799148 ], [ 107.997772977060706, 13.74603780275474 ], [ 107.997828176620075, 13.746157425987713 ], [ 107.999506367671557, 13.746076496924825 ], [ 107.999508769352687, 13.746076467692653 ], [ 107.999539393985032, 13.746058213320007 ], [ 107.999656383205021, 13.74483460767815 ], [ 107.997627498142819, 13.745212771858796 ] ] ], [ [ [ 107.997691076661454, 13.747101041150232 ], [ 107.997563459928116, 13.747367205856088 ], [ 107.997513399187653, 13.747738362338602 ], [ 107.997449693269616, 13.747995621573425 ], [ 107.999458009809132, 13.747973621138197 ], [ 107.999460227913801, 13.747973684448652 ], [ 107.999460875675794, 13.74797376687472 ], [ 107.999521672994717, 13.747074972084588 ], [ 107.997691076661454, 13.747101041150232 ] ] ], [ [ [ 107.997657512861878, 13.74706261556976 ], [ 107.999511973324317, 13.747038785043907 ], [ 107.999523659415516, 13.746106721338348 ], [ 107.99777907876468, 13.746190535333207 ], [ 107.997724157286726, 13.746579000369369 ], [ 107.997674560984436, 13.746725366213916 ], [ 107.997657512861878, 13.74706261556976 ] ] ] ] } },
{ "type": "Feature", "properties": { "STT": 9, "ID_lo": "0", "Vung": "TN", "Khu_vuc": "Tay Nguyen", "Congty": "VNCCSVN", "NT_doi": "Tram TNCS TN", "Tenlo_cu": "FBCP02", "Tenlo_moi": "FBCP02", "o": "", "Nam_trong": "2002", "Hang_dat": "TM-III", "Caotrinh": 645, "PP_trong": "B", "KC": "7x2,5", "Mat_do": "571", "Giong": "RRIV 4", "DT_bando": 5.19, "DT_2023": 5.19, "DT_2024": 5.19, "DT_thaydoi": 0.0, "Hien_trang": "CS.KD", "Phanloai_VC": "Q3", "Va_nam2": 0.0, "va_nam3": 0.0, "Va_nam4": 0.0, "Va_nam5": 0.0, "Va_nam6": 0.0, "Va_nam7": 0.0, "Va_nam8": 0.0, "Va_nam9": 0.0, "Va_nam10": 0.0, "Md_HH": 0.0, "Do_lechTC": 0.0, "Tyle_datTC": 0.0, "Nam_cao": "04/2011", "Nam_up": "04/2021", "Matdo_CC": 291, "NS_2017": 673.39, "NS_2018": 706.0, "NS_2022": 788.26, "NS_2019": 786.33, "NS_2020": 717.23, "NS_2021": 900.75, "NS_2023": 974.14, "HT_Loaivuon": "KDII", "X": 823786.0, "Y": 1520615.0 }, "geometry": { "type": "Polygon", "coordinates": [ [ [ 107.992151675863795, 13.736166312901226 ], [ 107.992418254249387, 13.736708832385537 ], [ 107.992973969522751, 13.737511191072379 ], [ 107.993338202230504, 13.73774103834689 ], [ 107.994209366850072, 13.737390889318331 ], [ 107.994847663242794, 13.737014305077597 ], [ 107.995134895843549, 13.736797229490627 ], [ 107.994877768560471, 13.736497266705864 ], [ 107.994519138439031, 13.73598847123319 ], [ 107.994192433050046, 13.73561457419852 ], [ 107.993818807571728, 13.735161410575708 ], [ 107.993278147510978, 13.735478645720809 ], [ 107.992692359483314, 13.735843389727115 ], [ 107.992151675863795, 13.736166312901226 ] ] ] } },
{ "type": "Feature", "properties": { "STT": 12, "ID_lo": "0", "Vung": "TN", "Khu_vuc": "Tay Nguyen", "Congty": "VNCCSVN", "NT_doi": "Tram TNCS TN", "Tenlo_cu": "VN 14", "Tenlo_moi": "", "o": "", "Nam_trong": "", "Hang_dat": "", "Caotrinh": 0, "PP_trong": "", "KC": "", "Mat_do": "", "Giong": "", "DT_bando": 2.92, "DT_2023": 2.92, "DT_2024": 0.0, "DT_thaydoi": 0.0, "Hien_trang": "", "Phanloai_VC": "", "Va_nam2": 0.0, "va_nam3": 0.0, "Va_nam4": 0.0, "Va_nam5": 0.0, "Va_nam6": 0.0, "Va_nam7": 0.0, "Va_nam8": 0.0, "Va_nam9": 0.0, "Va_nam10": 0.0, "Md_HH": 0.0, "Do_lechTC": 0.0, "Tyle_datTC": 0.0, "Nam_cao": "", "Nam_up": "", "Matdo_CC": 0, "NS_2017": 0.0, "NS_2018": 0.0, "NS_2022": 0.0, "NS_2019": 0.0, "NS_2020": 0.0, "NS_2021": 0.0, "NS_2023": 0.0, "HT_Loaivuon": "", "X": 823673.0, "Y": 1520442.0 }, "geometry": { "type": "Polygon", "coordinates": [ [ [ 107.993329495123547, 13.73418250061853 ], [ 107.992689624252407, 13.734463910451947 ], [ 107.992264918193669, 13.734680393279584 ], [ 107.991715993650644, 13.734950763293249 ], [ 107.991422023224544, 13.73526310552171 ], [ 107.992119674548036, 13.736141594504021 ], [ 107.993807327082763, 13.735123077159123 ], [ 107.993803929688411, 13.735088348397051 ], [ 107.993803084607478, 13.735087274915434 ], [ 107.993800361186601, 13.735083785819812 ], [ 107.993797910283362, 13.735079932169148 ], [ 107.993795921222855, 13.735076072911964 ], [ 107.993355747926458, 13.73416195216419 ], [ 107.99335470320716, 13.734159707050319 ], [ 107.993353843224284, 13.734157459694327 ], [ 107.993353076756406, 13.73415530151509 ], [ 107.993329495123547, 13.73418250061853 ] ] ] } },
{ "type": "Feature", "properties": { "STT": 16, "ID_lo": "0", "Vung": "TN", "Khu_vuc": "Tay Nguyen", "Congty": "VNCCSVN", "NT_doi": "Tram TNCS TN", "Tenlo_cu": "FBCP99", "Tenlo_moi": "FBCP99", "o": "", "Nam_trong": "1999", "Hang_dat": "TM-III", "Caotrinh": 630, "PP_trong": "B&T", "KC": "7x2,5", "Mat_do": "571", "Giong": "PB 260", "DT_bando": 11.6, "DT_2023": 11.6, "DT_2024": 11.6, "DT_thaydoi": 0.0, "Hien_trang": "CS.KD", "Phanloai_VC": "Q3", "Va_nam2": 0.0, "va_nam3": 0.0, "Va_nam4": 0.0, "Va_nam5": 0.0, "Va_nam6": 0.0, "Va_nam7": 0.0, "Va_nam8": 0.0, "Va_nam9": 0.0, "Va_nam10": 0.0, "Md_HH": 0.0, "Do_lechTC": 0.0, "Tyle_datTC": 0.0, "Nam_cao": "10/2007", "Nam_up": "04/2017", "Matdo_CC": 156, "NS_2017": 1536.16, "NS_2018": 807.23, "NS_2022": 1009.54, "NS_2019": 619.21, "NS_2020": 797.48, "NS_2021": 1069.88, "NS_2023": 788.66, "HT_Loaivuon": "KDII", "X": 824324.0, "Y": 1521337.0 }, "geometry": { "type": "Polygon", "coordinates": [ [ [ 108.000279197936393, 13.741109727992585 ], [ 108.000125816732819, 13.742152521578872 ], [ 108.000090438790508, 13.742950851585814 ], [ 107.999929240358654, 13.744714514166546 ], [ 107.999582515001009, 13.744736254693048 ], [ 107.998014247674817, 13.745025638543304 ], [ 107.997613234669728, 13.745115589695029 ], [ 107.997434128850898, 13.743978399700824 ], [ 107.997351692106804, 13.743388133541425 ], [ 107.99706554538605, 13.741708659768141 ], [ 107.997416856176926, 13.741626449523292 ], [ 107.997884175489531, 13.741534880640815 ], [ 107.998892314559995, 13.741341634526963 ], [ 108.000279197936393, 13.741109727992585 ] ] ] } },
{ "type": "Feature", "properties": { "STT": 24, "ID_lo": "0", "Vung": "TN", "Khu_vuc": "Tay Nguyen", "Congty": "VNCCSVN", "NT_doi": "Tram TNCS TN", "Tenlo_cu": "KC0609/02 R4", "Tenlo_moi": "KC0609/02 R4", "o": "", "Nam_trong": "2002", "Hang_dat": "TM-III", "Caotrinh": 632, "PP_trong": "B", "KC": "7x2,5", "Mat_do": "571", "Giong": "RRIV 4", "DT_bando": 8.61, "DT_2023": 8.61, "DT_2024": 8.61, "DT_thaydoi": 0.0, "Hien_trang": "CS.KD", "Phanloai_VC": "Q3", "Va_nam2": 0.0, "va_nam3": 0.0, "Va_nam4": 0.0, "Va_nam5": 0.0, "Va_nam6": 0.0, "Va_nam7": 0.0, "Va_nam8": 0.0, "Va_nam9": 0.0, "Va_nam10": 0.0, "Md_HH": 0.0, "Do_lechTC": 0.0, "Tyle_datTC": 0.0, "Nam_cao": "04/2011", "Nam_up": "04/2021", "Matdo_CC": 324, "NS_2017": 1172.0, "NS_2018": 566.4, "NS_2022": 794.11, "NS_2019": 207.77, "NS_2020": 956.02, "NS_2021": 888.39, "NS_2023": 1045.79, "HT_Loaivuon": "KDII", "X": 824146.0, "Y": 1522349.0 }, "geometry": { "type": "Polygon", "coordinates": [ [ [ 107.997025694050663, 13.753856478552455 ], [ 107.997033297597824, 13.753858643817987 ], [ 107.99736350521195, 13.75395342629062 ], [ 107.997771208039111, 13.753473607651191 ], [ 107.998700401427797, 13.752235960733682 ], [ 107.999347225769981, 13.751417271924053 ], [ 107.998821926762361, 13.751230581570924 ], [ 107.997724184061397, 13.751072621321383 ], [ 107.995297490231252, 13.750629086611955 ], [ 107.995295295073163, 13.750630829219638 ], [ 107.995295112622031, 13.75063101206092 ], [ 107.995258286453009, 13.750612133132263 ], [ 107.994986962779663, 13.750795422606888 ], [ 107.997025694050663, 13.753856478552455 ] ] ] } },
{ "type": "Feature", "properties": { "STT": 25, "ID_lo": "0", "Vung": "TN", "Khu_vuc": "Tay Nguyen", "Congty": "VNCCSVN", "NT_doi": "Tram TNCS TN", "Tenlo_cu": "KC0609/02 PB,R2", "Tenlo_moi": "KC0609/02 PB,R2", "o": "", "Nam_trong": "2002", "Hang_dat": "TM-III", "Caotrinh": 632, "PP_trong": "B", "KC": "7x2,5", "Mat_do": "571", "Giong": "PB260,RRIV2", "DT_bando": 10.71, "DT_2023": 10.71, "DT_2024": 10.71, "DT_thaydoi": 0.0, "Hien_trang": "CS.KD", "Phanloai_VC": "Q3", "Va_nam2": 0.0, "va_nam3": 0.0, "Va_nam4": 0.0, "Va_nam5": 0.0, "Va_nam6": 0.0, "Va_nam7": 0.0, "Va_nam8": 0.0, "Va_nam9": 0.0, "Va_nam10": 0.0, "Md_HH": 0.0, "Do_lechTC": 0.0, "Tyle_datTC": 0.0, "Nam_cao": "04/2011", "Nam_up": "04/2021", "Matdo_CC": 278, "NS_2017": 1172.19, "NS_2018": 567.4, "NS_2022": 789.23, "NS_2019": 554.84, "NS_2020": 741.87, "NS_2021": 883.26, "NS_2023": 1043.84, "HT_Loaivuon": "", "X": 823813.0, "Y": 1522353.0 }, "geometry": { "type": "Polygon", "coordinates": [ [ [ 107.997025694050663, 13.753856478552455 ], [ 107.996206969518369, 13.753648788734552 ], [ 107.994928918321492, 13.7536907029803 ], [ 107.993356690728362, 13.75380491304221 ], [ 107.992114173614681, 13.753887924429144 ], [ 107.991831613875959, 13.753660249000841 ], [ 107.991554522719198, 13.753470257041368 ], [ 107.9912945524826, 13.753267954985199 ], [ 107.992298244267658, 13.752654829941061 ], [ 107.992945049369382, 13.752232170461868 ], [ 107.993372462836021, 13.751950352511113 ], [ 107.993909448907601, 13.751588631262322 ], [ 107.994654358841046, 13.751078347929971 ], [ 107.994986962779663, 13.750795422606888 ], [ 107.997025694050663, 13.753856478552455 ] ] ] } },
{ "type": "Feature", "properties": { "STT": 11, "ID_lo": "0", "Vung": "TN", "Khu_vuc": "Tay Nguyen", "Congty": "VNCCSVN", "NT_doi": "Tram TNCS TN", "Tenlo_cu": "MONO03", "Tenlo_moi": "MONO03", "o": "", "Nam_trong": "2003", "Hang_dat": "TM-III", "Caotrinh": 610, "PP_trong": "B", "KC": "7x2,5", "Mat_do": "571", "Giong": "RRIV 4", "DT_bando": 5.05, "DT_2023": 5.05, "DT_2024": 5.05, "DT_thaydoi": 0.0, "Hien_trang": "CS.KD", "Phanloai_VC": "Q3", "Va_nam2": 0.0, "va_nam3": 0.0, "Va_nam4": 0.0, "Va_nam5": 0.0, "Va_nam6": 0.0, "Va_nam7": 0.0, "Va_nam8": 0.0, "Va_nam9": 0.0, "Va_nam10": 0.0, "Md_HH": 0.0, "Do_lechTC": 0.0, "Tyle_datTC": 0.0, "Nam_cao": "04/2012", "Nam_up": "04/2020", "Matdo_CC": 234, "NS_2017": 671.06, "NS_2018": 681.0, "NS_2022": 774.62, "NS_2019": 616.15, "NS_2020": 1054.85, "NS_2021": 825.29, "NS_2023": 1034.51, "HT_Loaivuon": "KDII", "X": 823702.0, "Y": 1520310.0 }, "geometry": { "type": "Polygon", "coordinates": [ [ [ 107.992689624252407, 13.734463910451947 ], [ 107.993329495123547, 13.73418250061853 ], [ 107.993353076756406, 13.73415530151509 ], [ 107.993353843224284, 13.734157459694327 ], [ 107.99335470320716, 13.734159707050319 ], [ 107.993355747926458, 13.73416195216419 ], [ 107.99315265278068, 13.733802447502994 ], [ 107.992861561943414, 13.733068042386879 ], [ 107.992507725580069, 13.732048199647274 ], [ 107.99240936693441, 13.731788391723509 ], [ 107.991428350000447, 13.731896292090525 ], [ 107.990736624658709, 13.731985960535754 ], [ 107.989861349758627, 13.732113163990508 ], [ 107.989997544537658, 13.732428237306591 ], [ 107.990109066313565, 13.732808272951809 ], [ 107.990211308240745, 13.732842706728809 ], [ 107.990589608697348, 13.733504983722041 ], [ 107.991995390905402, 13.732900907534782 ], [ 107.992444359146646, 13.733911739803412 ], [ 107.992472697995908, 13.734150090065995 ], [ 107.992602295760335, 13.73437447769747 ], [ 107.992689624252407, 13.734463910451947 ] ] ] } },
{ "type": "Feature", "properties": { "STT": 13, "ID_lo": "0", "Vung": "TN", "Khu_vuc": "Tay Nguyen", "Congty": "VNCCSVN", "NT_doi": "Tram TNCS TN", "Tenlo_cu": "CT00", "Tenlo_moi": "Lô 01' 16", "o": "", "Nam_trong": "2016", "Hang_dat": "TM-III", "Caotrinh": 620, "PP_trong": "TB2", "KC": "7*2.5", "Mat_do": "571", "Giong": "RRIV 210, R110, R 20", "DT_bando": 3.3, "DT_2023": 3.3, "DT_2024": 3.3, "DT_thaydoi": 0.0, "Hien_trang": "CS.KTCB", "Phanloai_VC": "K2", "Va_nam2": 7.5, "va_nam3": 10.8, "Va_nam4": 19.1, "Va_nam5": 28.0, "Va_nam6": 35.5, "Va_nam7": 43.22, "Va_nam8": 46.76, "Va_nam9": 0.0, "Va_nam10": 0.0, "Md_HH": 525.0, "Do_lechTC": 79.48, "Tyle_datTC": 83.96, "Nam_cao": "04/2025", "Nam_up": "", "Matdo_CC": 0, "NS_2017": 0.0, "NS_2018": 0.0, "NS_2022": 0.0, "NS_2019": 0.0, "NS_2020": 0.0, "NS_2021": 0.0, "NS_2023": 0.0, "HT_Loaivuon": "KTCB", "X": 823933.0, "Y": 1520167.0 }, "geometry": { "type": "Polygon", "coordinates": [ [ [ 107.992957077722664, 13.732841916757069 ], [ 107.993257481225726, 13.733473072731163 ], [ 107.993343865296012, 13.733691843149904 ], [ 107.994027206189187, 13.733421915930235 ], [ 107.996156292810653, 13.732524645813575 ], [ 107.996103756694652, 13.732403363372322 ], [ 107.995852170826424, 13.731732153001053 ], [ 107.992957077722664, 13.732841916757069 ] ] ] } },
{ "type": "Feature", "properties": { "STT": 14, "ID_lo": "0", "Vung": "TN", "Khu_vuc": "Tay Nguyen", "Congty": "VNCCSVN", "NT_doi": "Tram TNCS TN", "Tenlo_cu": "SG,QT00", "Tenlo_moi": "Lô 01'15", "o": "", "Nam_trong": "2015", "Hang_dat": "TM-III", "Caotrinh": 620, "PP_trong": "TB2", "KC": "7x2,5", "Mat_do": "571", "Giong": "RRIV209", "DT_bando": 2.15, "DT_2023": 2.15, "DT_2024": 2.15, "DT_thaydoi": 0.0, "Hien_trang": "CS.KD", "Phanloai_VC": "Q1", "Va_nam2": 0.0, "va_nam3": 0.0, "Va_nam4": 0.0, "Va_nam5": 0.0, "Va_nam6": 0.0, "Va_nam7": 0.0, "Va_nam8": 0.0, "Va_nam9": 0.0, "Va_nam10": 0.0, "Md_HH": 0.0, "Do_lechTC": 0.0, "Tyle_datTC": 0.0, "Nam_cao": "04/2023", "Nam_up": "", "Matdo_CC": 330, "NS_2017": 0.0, "NS_2018": 0.0, "NS_2022": 0.0, "NS_2019": 0.0, "NS_2020": 0.0, "NS_2021": 0.0, "NS_2023": 1410.93, "HT_Loaivuon": "KDI", "X": 823857.0, "Y": 1520112.0 }, "geometry": { "type": "Polygon", "coordinates": [ [ [ 107.992957077722664, 13.732841916757069 ], [ 107.995852170826424, 13.731732153001053 ], [ 107.99600447247694, 13.731656699332701 ], [ 107.995685082244478, 13.731603591690359 ], [ 107.994850520471118, 13.73169897956525 ], [ 107.994158706770548, 13.731774118178134 ], [ 107.99347339845373, 13.731808716320964 ], [ 107.992602230844284, 13.731851618375686 ], [ 107.992957077722664, 13.732841916757069 ] ] ] } },
{ "type": "Feature", "properties": { "STT": 15, "ID_lo": "0", "Vung": "TN", "Khu_vuc": "Tay Nguyen", "Congty": "VNCCSVN", "NT_doi": "Tram TNCS TN", "Tenlo_cu": "MONO00", "Tenlo_moi": "MONO00", "o": "", "Nam_trong": "2000", "Hang_dat": "TM-III", "Caotrinh": 638, "PP_trong": "B", "KC": "7x2,5", "Mat_do": "571", "Giong": "RRIV 4, RRIC 121", "DT_bando": 10.5, "DT_2023": 10.5, "DT_2024": 10.5, "DT_thaydoi": 0.0, "Hien_trang": "CS.KD", "Phanloai_VC": "Q3", "Va_nam2": 0.0, "va_nam3": 0.0, "Va_nam4": 0.0, "Va_nam5": 0.0, "Va_nam6": 0.0, "Va_nam7": 0.0, "Va_nam8": 0.0, "Va_nam9": 0.0, "Va_nam10": 0.0, "Md_HH": 0.0, "Do_lechTC": 0.0, "Tyle_datTC": 0.0, "Nam_cao": "04/2008", "Nam_up": "04/2018", "Matdo_CC": 265, "NS_2017": 664.92, "NS_2018": 812.31, "NS_2022": 827.52, "NS_2019": 662.26, "NS_2020": 1290.09, "NS_2021": 775.65, "NS_2023": 827.3, "HT_Loaivuon": "KDII", "X": 824000.0, "Y": 1520298.0 }, "geometry": { "type": "Polygon", "coordinates": [ [ [ 107.997804317134651, 13.733311554472706 ], [ 107.99770996331597, 13.732371927143012 ], [ 107.997649140889422, 13.732172987738396 ], [ 107.99740177376637, 13.732095435967501 ], [ 107.99600447247694, 13.731656699332701 ], [ 107.995908354049718, 13.731704286869082 ], [ 107.996225772145181, 13.732576182537294 ], [ 107.996069925592437, 13.732619889833739 ], [ 107.995502955098402, 13.732857883301641 ], [ 107.994498493763885, 13.733272869936865 ], [ 107.993342449389445, 13.733762213180489 ], [ 107.993457938426232, 13.73411952972444 ], [ 107.993893367366297, 13.735023773539318 ], [ 107.994702037873623, 13.735943352184419 ], [ 107.994702865750426, 13.735943071195992 ], [ 107.995079381034429, 13.734958708001345 ], [ 107.995337956848886, 13.734987537897343 ], [ 107.996541096390487, 13.735121574886699 ], [ 107.996451734254947, 13.734843236871376 ], [ 107.996335732252433, 13.734518621692178 ], [ 107.996237406135577, 13.7340583243653 ], [ 107.9977335347006, 13.73361522895657 ], [ 107.997804317134651, 13.733311554472706 ] ] ] } },
{ "type": "Feature", "properties": { "STT": 10, "ID_lo": "0", "Vung": "TN", "Khu_vuc": "Tay Nguyen", "Congty": "VNCCSVN", "NT_doi": "Tram TNCS TN", "Tenlo_cu": "KYCP02A", "Tenlo_moi": "KYCP02A", "o": "", "Nam_trong": "2002", "Hang_dat": "TM-III", "Caotrinh": 668, "PP_trong": "B", "KC": "7x2,5", "Mat_do": "571", "Giong": "RRIV 2", "DT_bando": 6.52, "DT_2023": 6.52, "DT_2024": 6.52, "DT_thaydoi": 0.0, "Hien_trang": "CS.KD", "Phanloai_VC": "Q3", "Va_nam2": 0.0, "va_nam3": 0.0, "Va_nam4": 0.0, "Va_nam5": 0.0, "Va_nam6": 0.0, "Va_nam7": 0.0, "Va_nam8": 0.0, "Va_nam9": 0.0, "Va_nam10": 0.0, "Md_HH": 0.0, "Do_lechTC": 0.0, "Tyle_datTC": 0.0, "Nam_cao": "04/2011", "Nam_up": "04/2020", "Matdo_CC": 227, "NS_2017": 814.53, "NS_2018": 423.34, "NS_2022": 661.61, "NS_2019": 400.39, "NS_2020": 681.8, "NS_2021": 754.25, "NS_2023": 660.94, "HT_Loaivuon": "KDII", "X": 823939.0, "Y": 1520781.0 }, "geometry": { "type": "Polygon", "coordinates": [ [ [ 107.993338202230504, 13.73774103834689 ], [ 107.993569186932632, 13.737772101047312 ], [ 107.993665107911369, 13.737970525333791 ], [ 107.993687451312269, 13.738093077959958 ], [ 107.993873362956634, 13.738401221903649 ], [ 107.993715616611055, 13.738652036284588 ], [ 107.9937431815341, 13.738858334726885 ], [ 107.993779424194472, 13.739042311111085 ], [ 107.994098591726797, 13.739636840435463 ], [ 107.994573996556653, 13.739534613702544 ], [ 107.995121793817788, 13.739567606243781 ], [ 107.995810861246241, 13.739478224763293 ], [ 107.996109369392897, 13.739435763419788 ], [ 107.996421053461049, 13.739383297648143 ], [ 107.996244969122799, 13.738816655812025 ], [ 107.996152554049189, 13.738349242749132 ], [ 107.996058630678718, 13.738039260872821 ], [ 107.995885951086663, 13.737747485312642 ], [ 107.995487888471828, 13.737182094253985 ], [ 107.995134895843549, 13.736797229490627 ], [ 107.994847663242794, 13.737014305077597 ], [ 107.994209366850072, 13.737390889318331 ], [ 107.993338202230504, 13.73774103834689 ] ] ] } },
{ "type": "Feature", "properties": { "STT": 17, "ID_lo": "0", "Vung": "TN", "Khu_vuc": "Tay Nguyen", "Congty": "VNCCSVN", "NT_doi": "Tram TNCS TN", "Tenlo_cu": "MÐCP99-1", "Tenlo_moi": "MDCP99-1", "o": "", "Nam_trong": "1999", "Hang_dat": "TM-III", "Caotrinh": 642, "PP_trong": "B", "KC": "7x2,5", "Mat_do": "571", "Giong": "PB 260", "DT_bando": 1.0, "DT_2023": 1.0, "DT_2024": 1.0, "DT_thaydoi": 0.0, "Hien_trang": "CS.KD", "Phanloai_VC": "Q3", "Va_nam2": 0.0, "va_nam3": 0.0, "Va_nam4": 0.0, "Va_nam5": 0.0, "Va_nam6": 0.0, "Va_nam7": 0.0, "Va_nam8": 0.0, "Va_nam9": 0.0, "Va_nam10": 0.0, "Md_HH": 0.0, "Do_lechTC": 0.0, "Tyle_datTC": 0.0, "Nam_cao": "10/2007", "Nam_up": "04/2017", "Matdo_CC": 287, "NS_2017": 1324.73, "NS_2018": 606.0, "NS_2022": 703.58, "NS_2019": 0.0, "NS_2020": 607.51, "NS_2021": 762.13, "NS_2023": 811.49, "HT_Loaivuon": "KDII", "X": 824131.0, "Y": 1520815.0 }, "geometry": { "type": "Polygon", "coordinates": [ [ [ 107.996290261185422, 13.738099303032353 ], [ 107.996358839212689, 13.738319552206068 ], [ 107.99647054732587, 13.738901968096686 ], [ 107.997044968578933, 13.738805758579607 ], [ 107.997460638734211, 13.738735861912453 ], [ 107.997246879570667, 13.73791653622164 ], [ 107.996744994906493, 13.737977455533828 ], [ 107.996290261185422, 13.738099303032353 ] ] ] } },
{ "type": "Feature", "properties": { "STT": 19, "ID_lo": "0", "Vung": "TN", "Khu_vuc": "Tay Nguyen", "Congty": "VNCCSVN", "NT_doi": "Tram TNCS TN", "Tenlo_cu": "MDCP99-5", "Tenlo_moi": "MDCP99-5", "o": "", "Nam_trong": "1999", "Hang_dat": "TM-III", "Caotrinh": 640, "PP_trong": "B", "KC": "7,5x2,4", "Mat_do": "555", "Giong": "PB 260", "DT_bando": 1.05, "DT_2023": 1.05, "DT_2024": 1.05, "DT_thaydoi": 0.0, "Hien_trang": "CS.KD", "Phanloai_VC": "Q3", "Va_nam2": 0.0, "va_nam3": 0.0, "Va_nam4": 0.0, "Va_nam5": 0.0, "Va_nam6": 0.0, "Va_nam7": 0.0, "Va_nam8": 0.0, "Va_nam9": 0.0, "Va_nam10": 0.0, "Md_HH": 0.0, "Do_lechTC": 0.0, "Tyle_datTC": 0.0, "Nam_cao": "10/2007", "Nam_up": "04/2017", "Matdo_CC": 275, "NS_2017": 1324.73, "NS_2018": 637.0, "NS_2022": 637.54, "NS_2019": 0.0, "NS_2020": 512.71, "NS_2021": 690.94, "NS_2023": 740.16, "HT_Loaivuon": "KDII", "X": 824149.0, "Y": 1520910.0 }, "geometry": { "type": "Polygon", "coordinates": [ [ [ 107.99647054732587, 13.738901968096686 ], [ 107.996598645320447, 13.739632566349041 ], [ 107.996619578568414, 13.73975305834899 ], [ 107.997582039855715, 13.739636958113929 ], [ 107.99746064103168, 13.738736042507343 ], [ 107.997460638734211, 13.738735861912453 ], [ 107.997044968578933, 13.738805758579607 ], [ 107.99647054732587, 13.738901968096686 ] ] ] } },
{ "type": "Feature", "properties": { "STT": 20, "ID_lo": "0", "Vung": "TN", "Khu_vuc": "Tay Nguyen", "Congty": "VNCCSVN", "NT_doi": "Tram TNCS TN", "Tenlo_cu": "MDCP99-2", "Tenlo_moi": "MDCP99-2", "o": "", "Nam_trong": "1999", "Hang_dat": "TM-III", "Caotrinh": 638, "PP_trong": "B", "KC": "6x3", "Mat_do": "555", "Giong": "PB 260", "DT_bando": 1.01, "DT_2023": 1.01, "DT_2024": 1.01, "DT_thaydoi": 0.0, "Hien_trang": "CS.KD", "Phanloai_VC": "Q3", "Va_nam2": 0.0, "va_nam3": 0.0, "Va_nam4": 0.0, "Va_nam5": 0.0, "Va_nam6": 0.0, "Va_nam7": 0.0, "Va_nam8": 0.0, "Va_nam9": 0.0, "Va_nam10": 0.0, "Md_HH": 0.0, "Do_lechTC": 0.0, "Tyle_datTC": 0.0, "Nam_cao": "04/2008", "Nam_up": "04/2018", "Matdo_CC": 295, "NS_2017": 622.85, "NS_2018": 825.0, "NS_2022": 590.99, "NS_2019": 658.77, "NS_2020": 449.48, "NS_2021": 640.73, "NS_2023": 689.37, "HT_Loaivuon": "KDII", "X": 824257.0, "Y": 1520897.0 }, "geometry": { "type": "Polygon", "coordinates": [ [ [ 107.997582039855715, 13.739636958113929 ], [ 107.997993678571774, 13.739613168109722 ], [ 107.998546520033543, 13.739577996802783 ], [ 107.998383789358655, 13.73863820926521 ], [ 107.998335237010252, 13.738648733949494 ], [ 107.99833670758369, 13.738655399105964 ], [ 107.997585537135052, 13.73879358774081 ], [ 107.997480064970063, 13.738810493901108 ], [ 107.99746064103168, 13.738736042507343 ], [ 107.997582039855715, 13.739636958113929 ] ] ] } },
{ "type": "Feature", "properties": { "STT": 1, "ID_lo": "0", "Vung": "TN", "Khu_vuc": "Tay Nguyen", "Congty": "VNCCSVN", "NT_doi": "Tram TNCS TN", "Tenlo_cu": "SLCP99", "Tenlo_moi": "SLCP99", "o": "", "Nam_trong": "1999", "Hang_dat": "TM-III", "Caotrinh": 628, "PP_trong": "B&T", "KC": "7x2,5", "Mat_do": "571", "Giong": "VM 515", "DT_bando": 8.01, "DT_2023": 8.01, "DT_2024": 8.01, "DT_thaydoi": 0.0, "Hien_trang": "CS.KD", "Phanloai_VC": "Q3", "Va_nam2": 0.0, "va_nam3": 0.0, "Va_nam4": 0.0, "Va_nam5": 0.0, "Va_nam6": 0.0, "Va_nam7": 0.0, "Va_nam8": 0.0, "Va_nam9": 0.0, "Va_nam10": 0.0, "Md_HH": 0.0, "Do_lechTC": 0.0, "Tyle_datTC": 0.0, "Nam_cao": "05/2008", "Nam_up": "04/2018", "Matdo_CC": 227, "NS_2017": 952.11, "NS_2018": 923.0, "NS_2022": 1026.68, "NS_2019": 1180.34, "NS_2020": 1333.62, "NS_2021": 1205.22, "NS_2023": 822.47, "HT_Loaivuon": "KDII", "X": 824400.0, "Y": 1520899.0 }, "geometry": { "type": "Polygon", "coordinates": [ [ [ 107.997993707796638, 13.737233914608106 ], [ 107.998097533741998, 13.737581434768929 ], [ 107.99833670758369, 13.738655399105964 ], [ 107.998335237010252, 13.738648733949494 ], [ 107.998383789358655, 13.73863820926521 ], [ 107.998546520033543, 13.739577996802783 ], [ 107.998846413550851, 13.741277439717811 ], [ 108.000316662810448, 13.740961251980146 ], [ 108.00040487112058, 13.740451997378266 ], [ 108.000727485543834, 13.738726288371735 ], [ 108.000195039195077, 13.738824795061907 ], [ 107.999918708383021, 13.73888198291051 ], [ 107.999732427029386, 13.738900956970177 ], [ 107.999575610334446, 13.737736585263477 ], [ 107.999520790415957, 13.737116813741073 ], [ 107.997993707796638, 13.737233914608106 ] ] ] } },
{ "type": "Feature", "properties": { "STT": 21, "ID_lo": "0", "Vung": "TN", "Khu_vuc": "Tay Nguyen", "Congty": "VNCCSVN", "NT_doi": "Tram TNCS TN", "Tenlo_cu": "MDCP99-3", "Tenlo_moi": "MDCP99-3", "o": "", "Nam_trong": "1999", "Hang_dat": "TM-III", "Caotrinh": 638, "PP_trong": "B", "KC": "4x4,5", "Mat_do": "555", "Giong": "PB 260", "DT_bando": 2.0, "DT_2023": 2.0, "DT_2024": 2.0, "DT_thaydoi": 0.0, "Hien_trang": "CS.KD", "Phanloai_VC": "Q3", "Va_nam2": 0.0, "va_nam3": 0.0, "Va_nam4": 0.0, "Va_nam5": 0.0, "Va_nam6": 0.0, "Va_nam7": 0.0, "Va_nam8": 0.0, "Va_nam9": 0.0, "Va_nam10": 0.0, "Md_HH": 0.0, "Do_lechTC": 0.0, "Tyle_datTC": 0.0, "Nam_cao": "04/2008", "Nam_up": "04/2018", "Matdo_CC": 263, "NS_2017": 622.85, "NS_2018": 827.0, "NS_2022": 834.75, "NS_2019": 827.93, "NS_2020": 745.47, "NS_2021": 904.0, "NS_2023": 959.82, "HT_Loaivuon": "KDII", "X": 824276.0, "Y": 1521050.0 }, "geometry": { "type": "Polygon", "coordinates": [ [ [ 107.998546520033543, 13.739577996802783 ], [ 107.997993678571774, 13.739613168109722 ], [ 107.997610288988653, 13.739635350286582 ], [ 107.997883865801938, 13.74119838425567 ], [ 107.997927021938239, 13.741453440590123 ], [ 107.998846413550851, 13.741277439717811 ], [ 107.998546520033543, 13.739577996802783 ] ] ] } },
{ "type": "Feature", "properties": { "STT": 18, "ID_lo": "0", "Vung": "TN", "Khu_vuc": "Tay Nguyen", "Congty": "VNCCSVN", "NT_doi": "Tram TNCS TN", "Tenlo_cu": "MDCP99-4", "Tenlo_moi": "MDCP99-4", "o": "", "Nam_trong": "1999", "Hang_dat": "TM-III", "Caotrinh": 640, "PP_trong": "B", "KC": "13x3x3", "Mat_do": "414", "Giong": "PB 260", "DT_bando": 2.06, "DT_2023": 2.06, "DT_2024": 2.06, "DT_thaydoi": 0.0, "Hien_trang": "CS.KD", "Phanloai_VC": "Q3", "Va_nam2": 0.0, "va_nam3": 0.0, "Va_nam4": 0.0, "Va_nam5": 0.0, "Va_nam6": 0.0, "Va_nam7": 0.0, "Va_nam8": 0.0, "Va_nam9": 0.0, "Va_nam10": 0.0, "Md_HH": 0.0, "Do_lechTC": 0.0, "Tyle_datTC": 0.0, "Nam_cao": "10/2008", "Nam_up": "04/2018", "Matdo_CC": 254, "NS_2017": 622.85, "NS_2018": 828.0, "NS_2022": 515.39, "NS_2019": 590.28, "NS_2020": 552.61, "NS_2021": 557.38, "NS_2023": 581.96, "HT_Loaivuon": "KDII", "X": 824205.0, "Y": 1520964.0 }, "geometry": { "type": "Polygon", "coordinates": [ [ [ 107.996619578568414, 13.73975305834899 ], [ 107.996797936635645, 13.740432922498963 ], [ 107.997076378578882, 13.741594374416831 ], [ 107.997852527239644, 13.741436374572785 ], [ 107.997927021938239, 13.741453440590123 ], [ 107.997883865801938, 13.74119838425567 ], [ 107.997610288988653, 13.739635350286582 ], [ 107.997613981490446, 13.739635124768178 ], [ 107.997582039855715, 13.739636958113929 ], [ 107.996619578568414, 13.73975305834899 ] ] ] } },
{ "type": "Feature", "properties": { "STT": 23, "ID_lo": "0", "Vung": "TN", "Khu_vuc": "Tay Nguyen", "Congty": "VNCCSVN", "NT_doi": "Tram TNCS TN", "Tenlo_cu": "KYCP02B", "Tenlo_moi": "KYCP02B", "o": "", "Nam_trong": "2002", "Hang_dat": "TM-III", "Caotrinh": 668, "PP_trong": "B", "KC": "7x2,5", "Mat_do": "571", "Giong": "RRIV 4, PB 260", "DT_bando": 1.87, "DT_2023": 1.87, "DT_2024": 1.87, "DT_thaydoi": 0.0, "Hien_trang": "CS.KD", "Phanloai_VC": "Q3", "Va_nam2": 0.0, "va_nam3": 0.0, "Va_nam4": 0.0, "Va_nam5": 0.0, "Va_nam6": 0.0, "Va_nam7": 0.0, "Va_nam8": 0.0, "Va_nam9": 0.0, "Va_nam10": 0.0, "Md_HH": 0.0, "Do_lechTC": 0.0, "Tyle_datTC": 0.0, "Nam_cao": "04/2011", "Nam_up": "04/2021", "Matdo_CC": 354, "NS_2017": 815.93, "NS_2018": 871.13, "NS_2022": 965.85, "NS_2019": 753.26, "NS_2020": 787.22, "NS_2021": 1083.21, "NS_2023": 1031.1, "HT_Loaivuon": "KDII", "X": 824139.0, "Y": 1521493.0 }, "geometry": { "type": "Polygon", "coordinates": [ [ [ 107.996410493038752, 13.743738877449591 ], [ 107.996545259417999, 13.7444993773817 ], [ 107.996573466408137, 13.744697719614239 ], [ 107.996597036929302, 13.744814837907333 ], [ 107.99677167239642, 13.745550107318696 ], [ 107.996806773964792, 13.745585985673562 ], [ 107.997547771695253, 13.745488830007837 ], [ 107.997240229282312, 13.743602352945882 ], [ 107.996410493038752, 13.743738877449591 ] ] ] } },
{ "type": "Feature", "properties": { "STT": 22, "ID_lo": "0", "Vung": "TN", "Khu_vuc": "Tay Nguyen", "Congty": "VNCCSVN", "NT_doi": "Tram TNCS TN", "Tenlo_cu": "KC0609/03 R4", "Tenlo_moi": "KC0609/03 R4", "o": "", "Nam_trong": "2003", "Hang_dat": "TM-III", "Caotrinh": 635, "PP_trong": "B", "KC": "7x2,5", "Mat_do": "571", "Giong": "RRIV 4", "DT_bando": 5.17, "DT_2023": 5.17, "DT_2024": 5.17, "DT_thaydoi": 0.0, "Hien_trang": "CS.KD", "Phanloai_VC": "Q3", "Va_nam2": 0.0, "va_nam3": 0.0, "Va_nam4": 0.0, "Va_nam5": 0.0, "Va_nam6": 0.0, "Va_nam7": 0.0, "Va_nam8": 0.0, "Va_nam9": 0.0, "Va_nam10": 0.0, "Md_HH": 0.0, "Do_lechTC": 0.0, "Tyle_datTC": 0.0, "Nam_cao": "04/2012", "Nam_up": "04/2020", "Matdo_CC": 361, "NS_2017": 657.0, "NS_2018": 786.0, "NS_2022": 1014.42, "NS_2019": 734.11, "NS_2020": 1162.99, "NS_2021": 1069.19, "NS_2023": 1047.75, "HT_Loaivuon": "KDII", "X": 824052.0, "Y": 1521445.0 }, "geometry": { "type": "Polygon", "coordinates": [ [ [ 107.996770473853616, 13.745550302515822 ], [ 107.996764054840483, 13.745517778145782 ], [ 107.996597036929302, 13.744814837907333 ], [ 107.996573466408137, 13.744697719614239 ], [ 107.996545259417999, 13.7444993773817 ], [ 107.996410493038752, 13.743738877449591 ], [ 107.996236527869158, 13.743135905396846 ], [ 107.996165317127875, 13.742505493731215 ], [ 107.996131362638494, 13.742334585550873 ], [ 107.994793032262137, 13.742484510171113 ], [ 107.995011086598609, 13.743394639868804 ], [ 107.995040175957811, 13.743502660277763 ], [ 107.995158388417295, 13.743717339367656 ], [ 107.995520144209593, 13.744993560487192 ], [ 107.995483664203022, 13.745401308847555 ], [ 107.99551495476058, 13.745529803058115 ], [ 107.995342464187871, 13.745718302598359 ], [ 107.995213060995695, 13.745967690236718 ], [ 107.995675077035457, 13.745886935289208 ], [ 107.995793094080028, 13.7458754760919 ], [ 107.996687628068685, 13.745762819279205 ], [ 107.996769460055575, 13.74555049546645 ], [ 107.996770473853616, 13.745550302515822 ] ] ] } },
{ "type": "Feature", "properties": { "STT": 4, "ID_lo": "0", "Vung": "TN", "Khu_vuc": "Tay Nguyen", "Congty": "VNCCSVN", "NT_doi": "Tram TNCS TN", "Tenlo_cu": "VN 06", "Tenlo_moi": "", "o": "", "Nam_trong": "", "Hang_dat": "", "Caotrinh": 0, "PP_trong": "", "KC": "", "Mat_do": "", "Giong": "", "DT_bando": 1.65, "DT_2023": 1.65, "DT_2024": 1.65, "DT_thaydoi": 0.0, "Hien_trang": "", "Phanloai_VC": "", "Va_nam2": 0.0, "va_nam3": 0.0, "Va_nam4": 0.0, "Va_nam5": 0.0, "Va_nam6": 0.0, "Va_nam7": 0.0, "Va_nam8": 0.0, "Va_nam9": 0.0, "Va_nam10": 0.0, "Md_HH": 0.0, "Do_lechTC": 0.0, "Tyle_datTC": 0.0, "Nam_cao": "", "Nam_up": "", "Matdo_CC": 0, "NS_2017": 0.0, "NS_2018": 0.0, "NS_2022": 0.0, "NS_2019": 0.0, "NS_2020": 0.0, "NS_2021": 0.0, "NS_2023": 0.0, "HT_Loaivuon": "", "X": 824098.0, "Y": 1521237.0 }, "geometry": { "type": "Polygon", "coordinates": [ [ [ 107.996131362638494, 13.742334585550873 ], [ 107.996165317127875, 13.742505493731215 ], [ 107.996165529435828, 13.742507658626289 ], [ 107.996165530584392, 13.742507748923815 ], [ 107.996227266142654, 13.743054195780577 ], [ 107.996840129385859, 13.742979734123518 ], [ 107.997177211690584, 13.742926325556494 ], [ 107.997043488531801, 13.742138900632053 ], [ 107.996931379059902, 13.741496252831842 ], [ 107.996856755286714, 13.741439992904612 ], [ 107.996036327959118, 13.74158877424582 ], [ 107.996170111091814, 13.742301331499203 ], [ 107.996131362638494, 13.742334585550873 ] ] ] } }
]
}
